{
  "type": "FeatureCollection",
  "features": [
    {
      "type": "Feature",
      "properties": {
        "norad_id": 30136,
        "name": "FENGYUN 1C DEB",
        "group": "fengyun-1c-debris",
        "lat": 70.18344369659278,
        "lon": 92.76933836838253,
        "alt_km": 860.1646222074005,
        "timestamp": "2025-12-21T20:41:08.235528+00:00",
        "meta_object_name": "FENGYUN 1C DEB",
        "meta_object_id": "1999-025SR",
        "meta_epoch": "2025-12-21T12:09:48.254400",
        "meta_mean_motion": 13.95334604,
        "meta_eccentricity": 0.01294381,
        "meta_inclination": 98.5565,
        "meta_ra_of_asc_node": 247.744,
        "meta_arg_of_pericenter": 45.3467,
        "meta_mean_anomaly": 78.5223,
        "meta_ephemeris_type": 0,
        "meta_classification_type": "U",
        "meta_norad_cat_id": 30136,
        "meta_element_set_no": 999,
        "meta_rev_at_epoch": 96213,
        "meta_bstar": 0.00045071336,
        "meta_mean_motion_dot": 6.15e-06,
        "meta_mean_motion_ddot": 0,
        "tle_line1": "1 30136U 99025SR  25355.50680850  .00000615  00000+0  45071-3 0  9991",
        "tle_line2": "2 30136  98.5565 247.7440 0129438  45.3467  78.5223 13.95334604962133"
      },
      "geometry": {
        "type": "Point",
        "coordinates": [
          92.76933836838253,
          70.18344369659278
        ]
      }
    },
    {
      "type": "Feature",
      "properties": {
        "norad_id": 30138,
        "name": "FENGYUN 1C DEB",
        "group": "fengyun-1c-debris",
        "lat": -71.41716646569613,
        "lon": 76.32378616522668,
        "alt_km": 846.9800676437117,
        "timestamp": "2025-12-21T20:41:08.235537+00:00",
        "meta_object_name": "FENGYUN 1C DEB",
        "meta_object_id": "1999-025ST",
        "meta_epoch": "2025-12-21T14:52:18.108192",
        "meta_mean_motion": 14.20054588,
        "meta_eccentricity": 0.00203416,
        "meta_inclination": 98.7584,
        "meta_ra_of_asc_node": 48.7911,
        "meta_arg_of_pericenter": 114.0767,
        "meta_mean_anomaly": 14.6661,
        "meta_ephemeris_type": 0,
        "meta_classification_type": "U",
        "meta_norad_cat_id": 30138,
        "meta_element_set_no": 999,
        "meta_rev_at_epoch": 97527,
        "meta_bstar": 0.00060865647,
        "meta_mean_motion_dot": 1.255e-05,
        "meta_mean_motion_ddot": 0,
        "tle_line1": "1 30138U 99025ST  25355.61965403  .00001255  00000+0  60866-3 0  9995",
        "tle_line2": "2 30138  98.7584  48.7911 0020341 114.0767  14.6661 14.20054588975275"
      },
      "geometry": {
        "type": "Point",
        "coordinates": [
          76.32378616522668,
          -71.41716646569613
        ]
      }
    },
    {
      "type": "Feature",
      "properties": {
        "norad_id": 30139,
        "name": "FENGYUN 1C DEB",
        "group": "fengyun-1c-debris",
        "lat": -50.391019762667874,
        "lon": -151.0290545867109,
        "alt_km": 819.4089234554149,
        "timestamp": "2025-12-21T20:41:08.235546+00:00",
        "meta_object_name": "FENGYUN 1C DEB",
        "meta_object_id": "1999-025SU",
        "meta_epoch": "2025-12-20T12:41:13.934400",
        "meta_mean_motion": 14.03677489,
        "meta_eccentricity": 0.0130916,
        "meta_inclination": 98.3653,
        "meta_ra_of_asc_node": 197.5016,
        "meta_arg_of_pericenter": 268.3336,
        "meta_mean_anomaly": 146.0114,
        "meta_ephemeris_type": 0,
        "meta_classification_type": "U",
        "meta_norad_cat_id": 30139,
        "meta_element_set_no": 999,
        "meta_rev_at_epoch": 96359,
        "meta_bstar": 0.00074815,
        "meta_mean_motion_dot": 1.228e-05,
        "meta_mean_motion_ddot": 0,
        "tle_line1": "1 30139U 99025SU  25354.52863350  .00001228  00000+0  74815-3 0  9992",
        "tle_line2": "2 30139  98.3653 197.5016 0130916 268.3336 146.0114 14.03677489963590"
      },
      "geometry": {
        "type": "Point",
        "coordinates": [
          -151.0290545867109,
          -50.391019762667874
        ]
      }
    },
    {
      "type": "Feature",
      "properties": {
        "norad_id": 30140,
        "name": "FENGYUN 1C DEB",
        "group": "fengyun-1c-debris",
        "lat": 53.85801381534262,
        "lon": -108.99723619097641,
        "alt_km": 844.830931401405,
        "timestamp": "2025-12-21T20:41:08.235555+00:00",
        "meta_object_name": "FENGYUN 1C DEB",
        "meta_object_id": "1999-025SV",
        "meta_epoch": "2025-12-20T22:58:02.462016",
        "meta_mean_motion": 14.20787968,
        "meta_eccentricity": 0.0040948,
        "meta_inclination": 98.8258,
        "meta_ra_of_asc_node": 57.8166,
        "meta_arg_of_pericenter": 285.4592,
        "meta_mean_anomaly": 253.8839,
        "meta_ephemeris_type": 0,
        "meta_classification_type": "U",
        "meta_norad_cat_id": 30140,
        "meta_element_set_no": 999,
        "meta_rev_at_epoch": 97260,
        "meta_bstar": 0.00086556,
        "meta_mean_motion_dot": 1.84e-05,
        "meta_mean_motion_ddot": 0,
        "tle_line1": "1 30140U 99025SV  25354.95697294  .00001840  00000+0  86556-3 0  9998",
        "tle_line2": "2 30140  98.8258  57.8166 0040948 285.4592 253.8839 14.20787968972607"
      },
      "geometry": {
        "type": "Point",
        "coordinates": [
          -108.99723619097641,
          53.85801381534262
        ]
      }
    },
    {
      "type": "Feature",
      "properties": {
        "norad_id": 30141,
        "name": "FENGYUN 1C DEB",
        "group": "fengyun-1c-debris",
        "lat": 63.985005466426166,
        "lon": 117.27282522781901,
        "alt_km": 716.7592816225097,
        "timestamp": "2025-12-21T20:41:08.235564+00:00",
        "meta_object_name": "FENGYUN 1C DEB",
        "meta_object_id": "1999-025SW",
        "meta_epoch": "2025-12-21T11:53:26.556864",
        "meta_mean_motion": 14.5172676,
        "meta_eccentricity": 0.00194299,
        "meta_inclination": 99.0153,
        "meta_ra_of_asc_node": 277.8965,
        "meta_arg_of_pericenter": 12.7141,
        "meta_mean_anomaly": 347.4538,
        "meta_ephemeris_type": 0,
        "meta_classification_type": "U",
        "meta_norad_cat_id": 30141,
        "meta_element_set_no": 999,
        "meta_rev_at_epoch": 98371,
        "meta_bstar": 0.0020622531,
        "meta_mean_motion_dot": 8.261e-05,
        "meta_mean_motion_ddot": 0,
        "tle_line1": "1 30141U 99025SW  25355.49544626  .00008261  00000+0  20623-2 0  9995",
        "tle_line2": "2 30141  99.0153 277.8965 0019429  12.7141 347.4538 14.51726760983714"
      },
      "geometry": {
        "type": "Point",
        "coordinates": [
          117.27282522781901,
          63.985005466426166
        ]
      }
    },
    {
      "type": "Feature",
      "properties": {
        "norad_id": 30142,
        "name": "FENGYUN 1C DEB",
        "group": "fengyun-1c-debris",
        "lat": 55.77727405821663,
        "lon": 58.10528183770396,
        "alt_km": 903.5921893109098,
        "timestamp": "2025-12-21T20:41:08.235573+00:00",
        "meta_object_name": "FENGYUN 1C DEB",
        "meta_object_id": "1999-025SX",
        "meta_epoch": "2025-12-21T05:05:37.188672",
        "meta_mean_motion": 14.10524615,
        "meta_eccentricity": 0.0101946,
        "meta_inclination": 99.1282,
        "meta_ra_of_asc_node": 71.1187,
        "meta_arg_of_pericenter": 284.1698,
        "meta_mean_anomaly": 74.8163,
        "meta_ephemeris_type": 0,
        "meta_classification_type": "U",
        "meta_norad_cat_id": 30142,
        "meta_element_set_no": 999,
        "meta_rev_at_epoch": 96418,
        "meta_bstar": 0.0013504,
        "meta_mean_motion_dot": 2.478e-05,
        "meta_mean_motion_ddot": 0,
        "tle_line1": "1 30142U 99025SX  25355.21223598  .00002478  00000+0  13504-2 0  9992",
        "tle_line2": "2 30142  99.1282  71.1187 0101946 284.1698  74.8163 14.10524615964183"
      },
      "geometry": {
        "type": "Point",
        "coordinates": [
          58.10528183770396,
          55.77727405821663
        ]
      }
    },
    {
      "type": "Feature",
      "properties": {
        "norad_id": 30143,
        "name": "FENGYUN 1C DEB",
        "group": "fengyun-1c-debris",
        "lat": 80.812599352211,
        "lon": 106.88085416433462,
        "alt_km": 952.4612404457548,
        "timestamp": "2025-12-21T20:41:08.235583+00:00",
        "meta_object_name": "FENGYUN 1C DEB",
        "meta_object_id": "1999-025SY",
        "meta_epoch": "2025-12-21T02:02:40.100640",
        "meta_mean_motion": 14.02609652,
        "meta_eccentricity": 0.01034893,
        "meta_inclination": 98.7346,
        "meta_ra_of_asc_node": 178.0364,
        "meta_arg_of_pericenter": 267.6186,
        "meta_mean_anomaly": 219.8109,
        "meta_ephemeris_type": 0,
        "meta_classification_type": "U",
        "meta_norad_cat_id": 30143,
        "meta_element_set_no": 999,
        "meta_rev_at_epoch": 96336,
        "meta_bstar": 0.00078525746,
        "meta_mean_motion_dot": 1.226e-05,
        "meta_mean_motion_ddot": 0,
        "tle_line1": "1 30143U 99025SY  25355.08518635  .00001226  00000+0  78526-3 0  9993",
        "tle_line2": "2 30143  98.7346 178.0364 0103489 267.6186 219.8109 14.02609652963362"
      },
      "geometry": {
        "type": "Point",
        "coordinates": [
          106.88085416433462,
          80.812599352211
        ]
      }
    }
  ]
}